STARS (KUKAI)           
1 33498U 09002G   26197.85250490  .00001779  00000+0  16446-3 0  9993
2 33498  98.1553 146.3775 0009828  75.3822 284.8487 14.95931540942914
KKS-1 (KISEKI)          
1 33499U 09002H   26198.07593606  .00000579  00000+0  77746-4 0  9996
2 33499  98.1173 120.9918 0007593 182.5438 177.5738 14.83191704940621
UK-DMC 2                
1 35683U 09041C   26198.18833550 -.00000134  00000+0 -12228-4 0  9996
2 35683  97.8876 332.4273 0001600 100.7280 259.4110 14.76093464910995
OCEANSAT-2              
1 35931U 09051A   26198.22371376 -.00000038  00000+0 -25716-6 0  9992
2 35931  98.2321 182.0763 0017472 147.6578 212.5663 13.99655931883537
SWISSCUBE               
1 35932U 09051B   26197.72444137  .00000456  00000+0  99539-4 0  9997
2 35932  98.4005 106.1245 0007905 114.9711 245.2311 14.62532363893478
BEESAT-1                
1 35933U 09051C   26197.68087812  .00000383  00000+0  86615-4 0  9996
2 35933  98.3932 105.6536 0006186 125.9975 234.1800 14.61763234893492
ITUPSAT1                
1 35935U 09051E   26198.17721014  .00000337  00000+0  79459-4 0  9999
2 35935  98.4015 105.3171 0008205 137.6090 222.5745 14.60480346893118
DMSP 5D-3 F18 (USA 210) 
1 35951U 09057A   26198.12449751  .00000171  00000+0  11167-3 0  9990
2 35951  98.9057 178.8316 0011343 160.1256 200.0361 14.14912506863822
PROBA-2                 
1 36037U 09059B   26197.95142111  .00000059  00000+0  24197-4 0  9991
2 36037  98.2461  20.8931 0013135 183.2522 176.8592 14.54874063885854
YAOGAN-7                
1 36110U 09069A   26198.14703255  .00000189  00000+0  33467-4 0  9992
2 36110  98.0030  83.8237 0023391 304.7704  55.1305 14.78036478894050
XIWANG-1 (HOPE-1)       
1 36122U 09072B   26198.18753253 -.00000345  00000+0 -78825-3 0  9998
2 36122 100.4041 151.5430 0007575 160.4065 199.7340 13.16438828796954
COSMOS 2463             
1 36519U 10017A   26198.01430909  .00000028  00000+0  14323-4 0  9991
2 36519  82.9580 227.7905 0037215  49.0025 321.2859 13.71667275812026
CARTOSAT-2B             
1 36795U 10035A   26198.18255009  .00000566  00000+0  84324-4 0  9996
2 36795  97.9935 248.5375 0012736  94.1268 266.1399 14.78653225864284
TISAT 1                 
1 36799U 10035E   26197.83054279  .00011550  00000+0  36749-3 0  9999
2 36799  98.0717 147.0371 0004608 116.8908 243.2804 15.32770774872241
YAOGAN-10               
1 36834U 10038A   26198.19554698  .00000567  00000+0  72102-4 0  9992
2 36834  97.8966 221.3608 0001672  81.8065 352.0501 14.85432930861669
SHIJIAN-6 04B (SJ-6 04B)
1 37180U 10051B   26198.18792159 -.00000266  00000+0 -16712-4 0  9990
2 37180  97.8729 203.9198 0007935 205.6864 154.3965 14.99382161860179
FENGYUN 3B              
1 37214U 10059A   26198.14975156 -.00000296  00000+0 -12957-3 0  9991
2 37214  98.9601 244.2889 0023171 101.2966 333.9276 14.14845779811663
COSMO-SKYMED 4          
1 37216U 10060A   26198.14839101  .00000485  00000+0  67503-4 0  9990
2 37216  97.8889  21.3143 0001522  86.0443 274.0944 14.82150987849005
O/OREOS (USA 219)       
1 37224U 10062C   26197.86249662  .00000992  00000+0  99231-4 0  9992
2 37224  71.9698  13.1111 0014076   1.8269 358.2950 14.93855170121078
RESOURCESAT-2           
1 37387U 11015A   26198.14248840  .00000035  00000+0  35903-4 0  9994
2 37387  98.7631 265.3751 0011665 165.6644 194.4866 14.21599827790433
YOUTHSAT                
1 37388U 11015B   26197.91319021  .00000066  00000+0  45348-4 0  9997
2 37388  98.3703 170.6303 0013203 253.7074 160.7540 14.25640993791876
APRIZESAT 6             
1 37793U 11044F   26197.75285005  .00000348  00000+0  56622-4 0  9995
2 37793  98.2335 108.8536 0042921 353.2900  67.9147 14.76958132801517
JUGNU                   
1 37839U 11058B   26198.16629453  .00000335  00000+0  35858-4 0  9990
2 37839  19.9596 126.2869 0018611  48.1963  89.0801 14.13783712763271
SRMSAT                  
1 37841U 11058D   26198.19137080  .00000329  00000+0  34785-4 0  9997
2 37841  19.9707 237.8634 0011708 173.0864 239.6665 14.11581345762068
SUOMI NPP               
1 37849U 11061A   26198.15609022  .00000022  00000+0  31537-4 0  9997
2 37849  98.7955 138.8285 0000836 203.4276 156.6862 14.19522782762697
YAOGAN-12               
1 37875U 11066B   26198.21764964  .00002330  00000+0  90653-4 0  9993
2 37875  97.1120 235.3769 0011004 116.0938 244.1435 15.26905577816624
